[{"OBJECT_NAME":"STARLINK-2251","OBJECT_ID":"2021-041AT","EPOCH":"2026-03-09T08:22:16.294944","MEAN_MOTION":15.06402763,"ECCENTRICITY":0.00015187,"INCLINATION":53.0549,"RA_OF_ASC_NODE":113.2361,"ARG_OF_PERICENTER":88.7145,"MEAN_ANOMALY":271.4018,"EPHEMERIS_TYPE":0,"CLASSIFICATION_TYPE":"U","NORAD_CAT_ID":48594,"ELEMENT_SET_NO":999,"REV_AT_EPOCH":26543,"BSTAR":0.00012513479,"MEAN_MOTION_DOT":1.583e-5,"MEAN_MOTION_DDOT":0},{"OBJECT_NAME":"SL-8 R\/B","OBJECT_ID":"1968-040B","EPOCH":"2026-03-09T18:37:46.369632","MEAN_MOTION":15.03260494,"ECCENTRICITY":0.00239141,"INCLINATION":74.0322,"RA_OF_ASC_NODE":313.5182,"ARG_OF_PERICENTER":137.361,"MEAN_ANOMALY":222.9441,"EPHEMERIS_TYPE":0,"CLASSIFICATION_TYPE":"U","NORAD_CAT_ID":3230,"ELEMENT_SET_NO":999,"REV_AT_EPOCH":9002,"BSTAR":0.00025747843,"MEAN_MOTION_DOT":3.469e-5,"MEAN_MOTION_DDOT":0}]
